STARLINK-36054          
1 66812U 25278X   26068.52482990  .00028860  00000+0  10530-2 0  9992
2 66812  43.0022 115.3149 0001475 293.8382  66.2315 15.27616009 15187
STARLINK-36554          
1 67502U 26012K   26067.71268370  .00032833  00000+0  11969-2 0  9992
2 67502  42.9934 319.8184 0000695 339.2059  20.8765 15.27591469  7619
